{
  "type": "FeatureCollection",
  "features": [
    {
      "type": "Feature",
      "properties": {
        "norad_id": 37781,
        "name": "HAIYANG-2A",
        "group": "resource",
        "lat": -40.06049959002818,
        "lon": 170.51935779464657,
        "alt_km": 975.472899888855,
        "timestamp": "2025-12-23T16:57:12.001861+00:00",
        "meta_object_name": "HAIYANG-2A",
        "meta_object_id": "2011-043A",
        "meta_epoch": "2025-12-23T07:10:44.904576",
        "meta_mean_motion": 13.78836069,
        "meta_eccentricity": 0.00016053,
        "meta_inclination": 99.3372,
        "meta_ra_of_asc_node": 358.0707,
        "meta_arg_of_pericenter": 69.7013,
        "meta_mean_anomaly": 290.4311,
        "meta_ephemeris_type": 0,
        "meta_classification_type": "U",
        "meta_norad_cat_id": 37781,
        "meta_element_set_no": 999,
        "meta_rev_at_epoch": 72244,
        "meta_bstar": 0.00010694831,
        "meta_mean_motion_dot": 6.5e-07,
        "meta_mean_motion_ddot": 0,
        "tle_line1": "1 37781U 11043A   25357.29913084  .00000065  00000+0  10695-3 0  9997",
        "tle_line2": "2 37781  99.3372 358.0707 0001605  69.7013 290.4311 13.78836069722449"
      },
      "geometry": {
        "type": "Point",
        "coordinates": [
          170.51935779464657,
          -40.06049959002818
        ]
      }
    },
    {
      "type": "Feature",
      "properties": {
        "norad_id": 37791,
        "name": "RASAT",
        "group": "resource",
        "lat": -66.91210931776583,
        "lon": -112.62621334698079,
        "alt_km": 687.072634558609,
        "timestamp": "2025-12-23T16:57:12.001871+00:00",
        "meta_object_name": "RASAT",
        "meta_object_id": "2011-044D",
        "meta_epoch": "2025-12-23T06:23:25.154304",
        "meta_mean_motion": 14.67922953,
        "meta_eccentricity": 0.00213873,
        "meta_inclination": 98.0649,
        "meta_ra_of_asc_node": 86.368,
        "meta_arg_of_pericenter": 33.2587,
        "meta_mean_anomaly": 50.6749,
        "meta_ephemeris_type": 0,
        "meta_classification_type": "U",
        "meta_norad_cat_id": 37791,
        "meta_element_set_no": 999,
        "meta_rev_at_epoch": 76737,
        "meta_bstar": 0.00010019095,
        "meta_mean_motion_dot": 5.26e-06,
        "meta_mean_motion_ddot": 0,
        "tle_line1": "1 37791U 11044D   25357.26626336  .00000526  00000+0  10019-3 0  9999",
        "tle_line2": "2 37791  98.0649  86.3680 0021387  33.2587  50.6749 14.67922953767374"
      },
      "geometry": {
        "type": "Point",
        "coordinates": [
          -112.62621334698079,
          -66.91210931776583
        ]
      }
    },
    {
      "type": "Feature",
      "properties": {
        "norad_id": 37841,
        "name": "SRMSAT",
        "group": "resource",
        "lat": 16.89711609027251,
        "lon": 164.82463926150672,
        "alt_km": 843.6367983181972,
        "timestamp": "2025-12-23T16:57:12.001881+00:00",
        "meta_object_name": "SRMSAT",
        "meta_object_id": "2011-058D",
        "meta_epoch": "2025-12-23T04:41:09.936096",
        "meta_mean_motion": 14.1151481,
        "meta_eccentricity": 0.00119884,
        "meta_inclination": 19.9729,
        "meta_ra_of_asc_node": 44.6728,
        "meta_arg_of_pericenter": 67.9566,
        "meta_mean_anomaly": 330.6291,
        "meta_ephemeris_type": 0,
        "meta_classification_type": "U",
        "meta_norad_cat_id": 37841,
        "meta_element_set_no": 999,
        "meta_rev_at_epoch": 73292,
        "meta_bstar": 8.3003529e-05,
        "meta_mean_motion_dot": 4.18e-06,
        "meta_mean_motion_ddot": 0,
        "tle_line1": "1 37841U 11058D   25357.19525389  .00000418  00000+0  83004-4 0  9993",
        "tle_line2": "2 37841  19.9729  44.6728 0011988  67.9566 330.6291 14.11514810732922"
      },
      "geometry": {
        "type": "Point",
        "coordinates": [
          164.82463926150672,
          16.89711609027251
        ]
      }
    },
    {
      "type": "Feature",
      "properties": {
        "norad_id": 38012,
        "name": "PLEIADES 1A",
        "group": "resource",
        "lat": 34.47523423179496,
        "lon": 64.63657009733447,
        "alt_km": 694.935335816248,
        "timestamp": "2025-12-23T16:57:12.001891+00:00",
        "meta_object_name": "PLEIADES 1A",
        "meta_object_id": "2011-076F",
        "meta_epoch": "2025-12-23T07:19:25.686624",
        "meta_mean_motion": 14.58570344,
        "meta_eccentricity": 0.00011073,
        "meta_inclination": 98.1814,
        "meta_ra_of_asc_node": 69.9108,
        "meta_arg_of_pericenter": 74.9554,
        "meta_mean_anomaly": 14.4725,
        "meta_ephemeris_type": 0,
        "meta_classification_type": "U",
        "meta_norad_cat_id": 38012,
        "meta_element_set_no": 999,
        "meta_rev_at_epoch": 74635,
        "meta_bstar": 8.9013882e-05,
        "meta_mean_motion_dot": 3.68e-06,
        "meta_mean_motion_ddot": 0,
        "tle_line1": "1 38012U 11076F   25357.30515841  .00000368  00000+0  89014-4 0  9990",
        "tle_line2": "2 38012  98.1814  69.9108 0001107  74.9554  14.4725 14.58570344746352"
      },
      "geometry": {
        "type": "Point",
        "coordinates": [
          64.63657009733447,
          34.47523423179496
        ]
      }
    },
    {
      "type": "Feature",
      "properties": {
        "norad_id": 38038,
        "name": "ZIYUAN 1-02C (ZY 1-02C)",
        "group": "resource",
        "lat": -32.65662370590638,
        "lon": -121.93770170721744,
        "alt_km": 772.3555266121275,
        "timestamp": "2025-12-23T16:57:12.001901+00:00",
        "meta_object_name": "ZIYUAN 1-02C (ZY 1-02C)",
        "meta_object_id": "2011-079A",
        "meta_epoch": "2025-12-23T08:01:42.813120",
        "meta_mean_motion": 14.38023173,
        "meta_eccentricity": 0.00075206,
        "meta_inclination": 98.4321,
        "meta_ra_of_asc_node": 63.1528,
        "meta_arg_of_pericenter": 110.7939,
        "meta_mean_anomaly": 338.0833,
        "meta_ephemeris_type": 0,
        "meta_classification_type": "U",
        "meta_norad_cat_id": 38038,
        "meta_element_set_no": 999,
        "meta_rev_at_epoch": 73393,
        "meta_bstar": 0.00017187506,
        "meta_mean_motion_dot": 4.77e-06,
        "meta_mean_motion_ddot": 0,
        "tle_line1": "1 38038U 11079A   25357.33452330  .00000477  00000+0  17188-3 0  9990",
        "tle_line2": "2 38038  98.4321  63.1528 0007520 110.7939 338.0833 14.38023173733935"
      },
      "geometry": {
        "type": "Point",
        "coordinates": [
          -121.93770170721744,
          -32.65662370590638
        ]
      }
    },
    {
      "type": "Feature",
      "properties": {
        "norad_id": 38338,
        "name": "ARIRANG-3 (KOMPSAT-3)",
        "group": "resource",
        "lat": 55.93590504473581,
        "lon": -60.141665132312454,
        "alt_km": 683.7787927224417,
        "timestamp": "2025-12-23T16:57:12.001912+00:00",
        "meta_object_name": "ARIRANG-3 (KOMPSAT-3)",
        "meta_object_id": "2012-025B",
        "meta_epoch": "2025-12-23T06:50:13.081632",
        "meta_mean_motion": 14.61725691,
        "meta_eccentricity": 0.00047595,
        "meta_inclination": 98.3338,
        "meta_ra_of_asc_node": 311.9545,
        "meta_arg_of_pericenter": 301.2847,
        "meta_mean_anomaly": 58.7887,
        "meta_ephemeris_type": 0,
        "meta_classification_type": "U",
        "meta_norad_cat_id": 38338,
        "meta_element_set_no": 999,
        "meta_rev_at_epoch": 72564,
        "meta_bstar": 0.00011453598,
        "meta_mean_motion_dot": 5.22e-06,
        "meta_mean_motion_ddot": 0,
        "tle_line1": "1 38338U 12025B   25357.28487363  .00000522  00000+0  11454-3 0  9994",
        "tle_line2": "2 38338  98.3338 311.9545 0004759 301.2847  58.7887 14.61725691725648"
      },
      "geometry": {
        "type": "Point",
        "coordinates": [
          -60.141665132312454,
          55.93590504473581
        ]
      }
    },
    {
      "type": "Feature",
      "properties": {
        "norad_id": 38709,
        "name": "EXACTVIEW-1 (ADS-1B)",
        "group": "resource",
        "lat": 43.33601186952663,
        "lon": 97.7618439528074,
        "alt_km": 804.1817932215072,
        "timestamp": "2025-12-23T16:57:12.001922+00:00",
        "meta_object_name": "EXACTVIEW-1 (ADS-1B)",
        "meta_object_id": "2012-039C",
        "meta_epoch": "2025-12-23T04:57:03.171744",
        "meta_mean_motion": 14.24911902,
        "meta_eccentricity": 0.00101818,
        "meta_inclination": 98.9637,
        "meta_ra_of_asc_node": 105.816,
        "meta_arg_of_pericenter": 322.8874,
        "meta_mean_anomaly": 37.16,
        "meta_ephemeris_type": 0,
        "meta_classification_type": "U",
        "meta_norad_cat_id": 38709,
        "meta_element_set_no": 999,
        "meta_rev_at_epoch": 69764,
        "meta_bstar": 7.5796241e-05,
        "meta_mean_motion_dot": 1.31e-06,
        "meta_mean_motion_ddot": 0,
        "tle_line1": "1 38709U 12039C   25357.20628671  .00000131  00000+0  75796-4 0  9998",
        "tle_line2": "2 38709  98.9637 105.8160 0010181 322.8874  37.1600 14.24911902697649"
      },
      "geometry": {
        "type": "Point",
        "coordinates": [
          97.7618439528074,
          43.33601186952663
        ]
      }
    }
  ]
}